{"type": "FeatureCollection", "features": [ {"type": "Feature", "properties": {"norad_id": 34077, "name": "IRIDIUM 33 DEB", "group": "iridium-33-debris", "lat": -11.152632287782824, "lon": -127.14177495652874, "alt_km": 688.2808019950526, "timestamp": "2025-12-11T07:02:24.115277+00:00", "meta": {"OBJECT_NAME": "IRIDIUM 33 DEB", "OBJECT_ID": "1997-051CL", "EPOCH": "2025-12-10T22:18:50.570208", "MEAN_MOTION": 14.64796213, "ECCENTRICITY": 0.00103995, "INCLINATION": 86.386, "RA_OF_ASC_NODE": 52.3044, "ARG_OF_PERICENTER": 45.2897, "MEAN_ANOMALY": 29.6712, "EPHEMERIS_TYPE": 0, "CLASSIFICATION_TYPE": "U", "NORAD_CAT_ID": 34077, "ELEMENT_SET_NO": 999, "REV_AT_EPOCH": 88306, "BSTAR": 0.0022672464, "MEAN_MOTION_DOT": 0.00012131, "MEAN_MOTION_DDOT": 0}, "tle": {"line1": "1 34077U 97051CL  25344.92975197  .00012131  00000+0  22672-2 0  9998", "line2": "2 34077  86.3860  52.3044 0010399  45.2897  29.6712 14.64796213883064"}}, "geometry": {"type": "Point", "coordinates": [-127.14177495652874, -11.152632287782824]}}, {"type": "Feature", "properties": {"norad_id": 34079, "name": "IRIDIUM 33 DEB", "group": "iridium-33-debris", "lat": 84.3774383286819, "lon": 49.370515322880955, "alt_km": 609.7894742916324, "timestamp": "2025-12-11T07:02:24.115288+00:00", "meta": {"OBJECT_NAME": "IRIDIUM 33 DEB", "OBJECT_ID": "1997-051CN", "EPOCH": "2025-12-10T20:07:33.470976", "MEAN_MOTION": 14.83443209, "ECCENTRICITY": 0.00058616, "INCLINATION": 86.3777, "RA_OF_ASC_NODE": 9.5265, "ARG_OF_PERICENTER": 14.1255, "MEAN_ANOMALY": 164.5468, "EPHEMERIS_TYPE": 0, "CLASSIFICATION_TYPE": "U", "NORAD_CAT_ID": 34079, "ELEMENT_SET_NO": 999, "REV_AT_EPOCH": 88949, "BSTAR": 0.0025719301, "MEAN_MOTION_DOT": 0.00021191, "MEAN_MOTION_DDOT": 0}, "tle": {"line1": "1 34079U 97051CN  25344.83858184  .00021191  00000+0  25719-2 0  9997", "line2": "2 34079  86.3777   9.5265 0005861  14.1255 164.5468 14.83443209889498"}}, "geometry": {"type": "Point", "coordinates": [49.370515322880955, 84.3774383286819]}}, {"type": "Feature", "properties": {"norad_id": 34088, "name": "IRIDIUM 33 DEB", "group": "iridium-33-debris", "lat": 43.65942603487901, "lon": -152.07069833275486, "alt_km": 587.7654767364729, "timestamp": "2025-12-11T07:02:24.115299+00:00", "meta": {"OBJECT_NAME": "IRIDIUM 33 DEB", "OBJECT_ID": "1997-051CX", "EPOCH": "2025-12-10T21:33:56.530080", "MEAN_MOTION": 14.91233135, "ECCENTRICITY": 0.00055122, "INCLINATION": 86.3845, "RA_OF_ASC_NODE": 31.5698, "ARG_OF_PERICENTER": 183.1078, "MEAN_ANOMALY": 355.2108, "EPHEMERIS_TYPE": 0, "CLASSIFICATION_TYPE": "U", "NORAD_CAT_ID": 34088, "ELEMENT_SET_NO": 999, "REV_AT_EPOCH": 88714, "BSTAR": 0.0038162368, "MEAN_MOTION_DOT": 0.00038131, "MEAN_MOTION_DDOT": 0}, "tle": {"line1": "1 34088U 97051CX  25344.89857095  .00038131  00000+0  38162-2 0  9991", "line2": "2 34088  86.3845  31.5698 0005512 183.1078 355.2108 14.91233135887146"}}, "geometry": {"type": "Point", "coordinates": [-152.07069833275486, 43.65942603487901]}}, {"type": "Feature", "properties": {"norad_id": 34091, "name": "IRIDIUM 33 DEB", "group": "iridium-33-debris", "lat": 11.733489466475497, "lon": 68.25722069566508, "alt_km": 618.8860596749428, "timestamp": "2025-12-11T07:02:24.115309+00:00", "meta": {"OBJECT_NAME": "IRIDIUM 33 DEB", "OBJECT_ID": "1997-051DA", "EPOCH": "2025-12-10T05:03:05.693184", "MEAN_MOTION": 14.81495206, "ECCENTRICITY": 0.003336, "INCLINATION": 86.3408, "RA_OF_ASC_NODE": 67.9914, "ARG_OF_PERICENTER": 302.3952, "MEAN_ANOMALY": 57.4043, "EPHEMERIS_TYPE": 0, "CLASSIFICATION_TYPE": "U", "NORAD_CAT_ID": 34091, "ELEMENT_SET_NO": 999, "REV_AT_EPOCH": 87829, "BSTAR": 0.0076077, "MEAN_MOTION_DOT": 0.00060664, "MEAN_MOTION_DDOT": 0}, "tle": {"line1": "1 34091U 97051DA  25344.21048256  .00060664  00000+0  76077-2 0  9995", "line2": "2 34091  86.3408  67.9914 0033360 302.3952  57.4043 14.81495206878290"}}, "geometry": {"type": "Point", "coordinates": [68.25722069566508, 11.733489466475497]}}, {"type": "Feature", "properties": {"norad_id": 34097, "name": "IRIDIUM 33 DEB", "group": "iridium-33-debris", "lat": 35.06830295007731, "lon": 179.37223813396565, "alt_km": 817.3093565785421, "timestamp": "2025-12-11T07:02:24.115319+00:00", "meta": {"OBJECT_NAME": "IRIDIUM 33 DEB", "OBJECT_ID": "1997-051DG", "EPOCH": "2025-12-10T18:39:16.111584", "MEAN_MOTION": 14.34750948, "ECCENTRICITY": 0.00828082, "INCLINATION": 86.2005, "RA_OF_ASC_NODE": 2.2737, "ARG_OF_PERICENTER": 8.5902, "MEAN_ANOMALY": 351.6688, "EPHEMERIS_TYPE": 0, "CLASSIFICATION_TYPE": "U", "NORAD_CAT_ID": 34097, "ELEMENT_SET_NO": 999, "REV_AT_EPOCH": 87091, "BSTAR": 0.0021420417, "MEAN_MOTION_DOT": 6.328e-05, "MEAN_MOTION_DDOT": 0}, "tle": {"line1": "1 34097U 97051DG  25344.77726981  .00006328  00000+0  21420-2 0  9999", "line2": "2 34097  86.2005   2.2737 0082808   8.5902 351.6688 14.34750948870914"}}, "geometry": {"type": "Point", "coordinates": [179.37223813396565, 35.06830295007731]}}, {"type": "Feature", "properties": {"norad_id": 34145, "name": "IRIDIUM 33 DEB", "group": "iridium-33-debris", "lat": 13.541286021435619, "lon": -25.914983050228432, "alt_km": 748.1735858558413, "timestamp": "2025-12-11T07:02:24.115329+00:00", "meta": {"OBJECT_NAME": "IRIDIUM 33 DEB", "OBJECT_ID": "1997-051DY", "EPOCH": "2025-12-10T04:20:07.855008", "MEAN_MOTION": 14.42258512, "ECCENTRICITY": 0.0055658, "INCLINATION": 86.2123, "RA_OF_ASC_NODE": 333.6661, "ARG_OF_PERICENTER": 101.9259, "MEAN_ANOMALY": 258.8189, "EPHEMERIS_TYPE": 0, "CLASSIFICATION_TYPE": "U", "NORAD_CAT_ID": 34145, "ELEMENT_SET_NO": 999, "REV_AT_EPOCH": 87601, "BSTAR": 0.0015884, "MEAN_MOTION_DOT": 5.356e-05, "MEAN_MOTION_DDOT": 0}, "tle": {"line1": "1 34145U 97051DY  25344.18064647  .00005356  00000+0  15884-2 0  9999", "line2": "2 34145  86.2123 333.6661 0055658 101.9259 258.8189 14.42258512876012"}}, "geometry": {"type": "Point", "coordinates": [-25.914983050228432, 13.541286021435619]}}, {"type": "Feature", "properties": {"norad_id": 34146, "name": "IRIDIUM 33 DEB", "group": "iridium-33-debris", "lat": -22.962579921585544, "lon": -11.138489654845335, "alt_km": 740.5177899491173, "timestamp": "2025-12-11T07:02:24.115339+00:00", "meta": {"OBJECT_NAME": "IRIDIUM 33 DEB", "OBJECT_ID": "1997-051DZ", "EPOCH": "2025-12-10T18:42:15.359616", "MEAN_MOTION": 14.49026289, "ECCENTRICITY": 0.00253347, "INCLINATION": 86.2839, "RA_OF_ASC_NODE": 350.6664, "ARG_OF_PERICENTER": 228.5849, "MEAN_ANOMALY": 308.7272, "EPHEMERIS_TYPE": 0, "CLASSIFICATION_TYPE": "U", "NORAD_CAT_ID": 34146, "ELEMENT_SET_NO": 999, "REV_AT_EPOCH": 88078, "BSTAR": 0.0014626959, "MEAN_MOTION_DOT": 5.59e-05, "MEAN_MOTION_DDOT": 0}, "tle": {"line1": "1 34146U 97051DZ  25344.77934444  .00005590  00000+0  14627-2 0  9990", "line2": "2 34146  86.2839 350.6664 0025334 228.5849 308.7272 14.49026289880786"}}, "geometry": {"type": "Point", "coordinates": [-11.138489654845335, -22.962579921585544]}}, {"type": "Feature", "properties": {"norad_id": 34159, "name": "IRIDIUM 33 DEB", "group": "iridium-33-debris", "lat": 73.02273092027717, "lon": -143.20703671030904, "alt_km": 775.0314169683206, "timestamp": "2025-12-11T07:02:24.115350+00:00", "meta": {"OBJECT_NAME": "IRIDIUM 33 DEB", "OBJECT_ID": "1997-051EN", "EPOCH": "2025-12-10T22:11:52.520352", "MEAN_MOTION": 14.38485877, "ECCENTRICITY": 0.00259911, "INCLINATION": 86.351, "RA_OF_ASC_NODE": 49.0152, "ARG_OF_PERICENTER": 294.2781, "MEAN_ANOMALY": 65.5702, "EPHEMERIS_TYPE": 0, "CLASSIFICATION_TYPE": "U", "NORAD_CAT_ID": 34159, "ELEMENT_SET_NO": 999, "REV_AT_EPOCH": 87933, "BSTAR": 0.00057442822, "MEAN_MOTION_DOT": 1.779e-05, "MEAN_MOTION_DDOT": 0}, "tle": {"line1": "1 34159U 97051EN  25344.92491343  .00001779  00000+0  57443-3 0  9996", "line2": "2 34159  86.3510  49.0152 0025991 294.2781  65.5702 14.38485877879337"}}, "geometry": {"type": "Point", "coordinates": [-143.20703671030904, 73.02273092027717]}}, {"type": "Feature", "properties": {"norad_id": 34350, "name": "IRIDIUM 33 DEB", "group": "iridium-33-debris", "lat": 79.98631057535995, "lon": 162.1055446968392, "alt_km": 721.1599312893795, "timestamp": "2025-12-11T07:02:24.115361+00:00", "meta": {"OBJECT_NAME": "IRIDIUM 33 DEB", "OBJECT_ID": "1997-051ES", "EPOCH": "2025-12-10T12:52:02.617824", "MEAN_MOTION": 14.45379057, "ECCENTRICITY": 0.00226247, "INCLINATION": 86.3276, "RA_OF_ASC_NODE": 3.7635, "ARG_OF_PERICENTER": 142.0341, "MEAN_ANOMALY": 339.995, "EPHEMERIS_TYPE": 0, "CLASSIFICATION_TYPE": "U", "NORAD_CAT_ID": 34350, "ELEMENT_SET_NO": 999, "REV_AT_EPOCH": 88261, "BSTAR": 0.00047544154, "MEAN_MOTION_DOT": 1.696e-05, "MEAN_MOTION_DDOT": 0}, "tle": {"line1": "1 34350U 97051ES  25344.53614141  .00001696  00000+0  47544-3 0  9998", "line2": "2 34350  86.3276   3.7635 0022624 142.0341 339.9950 14.45379057882612"}}, "geometry": {"type": "Point", "coordinates": [162.1055446968392, 79.98631057535995]}}, {"type": "Feature", "properties": {"norad_id": 34366, "name": "IRIDIUM 33 DEB", "group": "iridium-33-debris", "lat": 22.00385032683219, "lon": 51.412575772080444, "alt_km": 720.6485549843646, "timestamp": "2025-12-11T07:02:24.115371+00:00", "meta": {"OBJECT_NAME": "IRIDIUM 33 DEB", "OBJECT_ID": "1997-051FJ", "EPOCH": "2025-12-10T04:47:12.333120", "MEAN_MOTION": 14.54021911, "ECCENTRICITY": 0.0022308, "INCLINATION": 86.3691, "RA_OF_ASC_NODE": 50.4179, "ARG_OF_PERICENTER": 147.6537, "MEAN_ANOMALY": 272.451, "EPHEMERIS_TYPE": 0, "CLASSIFICATION_TYPE": "U", "NORAD_CAT_ID": 34366, "ELEMENT_SET_NO": 999, "REV_AT_EPOCH": 88145, "BSTAR": 0.0016468, "MEAN_MOTION_DOT": 6.988e-05, "MEAN_MOTION_DDOT": 0}, "tle": {"line1": "1 34366U 97051FJ  25344.19944830  .00006988  00000+0  16468-2 0  9997", "line2": "2 34366  86.3691  50.4179 0022308 147.6537 272.4510 14.54021911881456"}}, "geometry": {"type": "Point", "coordinates": [51.412575772080444, 22.00385032683219]}}]}